COSMOS 2475 [GLONASS-M]
1 37869U 11064C   26118.68616773 -.00000020  00000+0  00000+0 0  9998
2 37869  65.2572  74.6411 0027114 255.4964 229.2571  2.13101497112713
